          "epoch_osculation": "2458000.5",
          "eccentricity": ".2346123272675713",
          "semi_major_axis": "1.31903536422791",
          "inclination": "5.282346532525679",
          "ascending_node_longitude": "189.7861528376664",
          "orbital_period": "553.3285589238509",
          "perihelion_distance": "1.009573407678171",
          "perihelion_argument": "232.298651001016",
          "aphelion_distance": "1.628497320777648",
          "perihelion_time": "2458108.522315135335",
          "mean_anomaly": "289.719815069093",
          "mean_motion": ".6506080233779208",
          "equinox": "J2000"
        }
      },
      {
        "links": {
          "self": "https://api.nasa.gov/neo/rest/v1/neo/2363024?api_key=iLtewAxJtd6Mg251LRVKizhDSljCMaI1qoeZBOSD"
        },
        "neo_reference_id": "2363024",
        "name": "363024 (1998 OK1)",
        "nasa_jpl_url": "http://ssd.jpl.nasa.gov/sbdb.cgi?sstr=2363024",
        "absolute_magnitude_h": 19.3,
        "estimated_diameter": {
          "kilometers": {
            "estimated_diameter_min": 0.3669061375,
            "estimated_diameter_max": 0.8204270649
          },
          "meters": {
            "estimated_diameter_min": 366.9061375314,
            "estimated_diameter_max": 820.4270648822
          },
          "miles": {
            "estimated_diameter_min": 0.2279848336,
            "estimated_diameter_max": 0.5097895857
          },
          "feet": {
            "estimated_diameter_min": 1203.7603322587,
            "estimated_diameter_max": 2691.6899315481
          }
        },
        "is_potentially_hazardous_asteroid": true,
        "close_approach_data": [
          {
            "close_approach_date": "2017-08-09",
            "epoch_date_close_approach": 1502262000000,
            "relative_velocity": {
              "kilometers_per_second": "16.555055618",
              "kilometers_per_hour": "59598.2002249721",
              "miles_per_hour": "37032.0039120111"
            },
            "miss_distance": {
              "astronomical": "0.1934232136",
              "lunar": "75.2416305542",
              "kilometers": "28935700",
              "miles": "17979810"
            },
            "orbiting_body": "Earth"
          }
        ],
        "orbital_data": {
          "orbit_id": "41",
          "orbit_determination_date": "2017-08-02 06:21:33",
          "orbit_uncertainty": "0",
          "minimum_orbit_intersection": ".0389905",
          "jupiter_tisserand_invariant": "4.733",
          "epoch_osculation": "2458000.5",
          "eccentricity": ".4293493361711155",
          "semi_major_axis": "1.355716259604144",
          "inclination": "13.99040862273351",
          "ascending_node_longitude": "109.700821351311",
          "orbital_period": "576.5694589706334",
          "perihelion_distance": ".7736403835067167",
          "perihelion_argument": "298.52819981",
          "aphelion_distance": "1.937792135701571",
          "perihelion_time": "2458035.770003537593",
          "mean_anomaly": "337.9780196887253",
          "mean_motion": ".6243827077534053",
          "equinox": "J2000"
        }
      },
      {
        "links": {
          "self": "https://api.nasa.gov/neo/rest/v1/neo/3528338?api_key=iLtewAxJtd6Mg251LRVKizhDSljCMaI1qoeZBOSD"
        },
        "neo_reference_id": "3528338",
        "name": "(2010 LM14)",
        "nasa_jpl_url": "http://ssd.jpl.nasa.gov/sbdb.cgi?sstr=3528338",
        "absolute_magnitude_h": 21.5,
        "estimated_diameter": {
          "kilometers": {
            "estimated_diameter_min": 0.1332155667,
            "estimated_diameter_max": 0.2978790628
          },
          "meters": {
            "estimated_diameter_min": 133.2155666981,
            "estimated_diameter_max": 297.8790627982
          },
          "miles": {
            "estimated_diameter_min": 0.0827762899,
            "estimated_diameter_max": 0.1850934111
          },
          "feet": {
            "estimated_diameter_min": 437.0589598459,
            "estimated_diameter_max": 977.2935443908
          }
        },
        "is_potentially_hazardous_asteroid": false,
        "close_approach_data": [
          {
            "close_approach_date": "2017-08-09",
            "epoch_date_close_approach": 1502262000000,
            "relative_velocity": {
              "kilometers_per_second": "18.9164711463",
              "kilometers_per_hour": "68099.2961268405",
              "miles_per_hour": "42314.2543072582"
            },
            "miss_distance": {
              "astronomical": "0.3642841321",
              "lunar": "141.70652771",
              "kilometers": "54496132",
              "miles": "33862324"
            },
            "orbiting_body": "Earth"
          }
        ],
        "orbital_data": {
          "orbit_id": "13",
          "orbit_determination_date": "2017-06-20 06:19:26",
          "orbit_uncertainty": "1",
          "minimum_orbit_intersection": ".313053",
          "jupiter_tisserand_invariant": "5.455",
          "epoch_osculation": "2458000.5",
          "eccentricity": ".3793664784477458",
          "semi_major_axis": "1.110312468405852",
          "inclination": "25.92472031044273",
          "ascending_node_longitude": "176.669182927554",
          "orbital_period": "427.3328232665012",
          "perihelion_distance": ".6890971372900999",
          "perihelion_argument": "187.9275111629084",
          "aphelion_distance": "1.531527799521604",
          "perihelion_time": "2457997.710336822946",
          "mean_anomaly": "2.350109069700449",
          "mean_motion": ".8424347028814357",
          "equinox": "J2000"
        }
      },
      {
        "links": {
          "self": "https://api.nasa.gov/neo/rest/v1/neo/3709252?api_key=iLtewAxJtd6Mg251LRVKizhDSljCMaI1qoeZBOSD"
        },
        "neo_reference_id": "3709252",
        "name": "(2015 BE513)",
        "nasa_jpl_url": "http://ssd.jpl.nasa.gov/sbdb.cgi?sstr=3709252",
        "absolute_magnitude_h": 22.1,
        "estimated_diameter": {
          "kilometers": {
            "estimated_diameter_min": 0.1010543415,
            "estimated_diameter_max": 0.2259643771
          },
          "meters": {
            "estimated_diameter_min": 101.054341542,
            "estimated_diameter_max": 225.9643771094
          },
          "miles": {
            "estimated_diameter_min": 0.0627922373,
            "estimated_diameter_max": 0.140407711
          },
          "feet": {
            "estimated_diameter_min": 331.5431259047,
            "estimated_diameter_max": 741.3529669956
          }
        },
        "is_potentially_hazardous_asteroid": false,
        "close_approach_data": [
          {
            "close_approach_date": "2017-08-09",
            "epoch_date_close_approach": 1502262000000,
            "relative_velocity": {
              "kilometers_per_second": "15.1916242324",
              "kilometers_per_hour": "54689.8472367415",
              "miles_per_hour": "33982.1442455186"
            },
            "miss_distance": {
              "astronomical": "0.4031364575",
              "lunar": "156.8200836182",
              "kilometers": "60308356",
              "miles": "37473876"
            },
            "orbiting_body": "Earth"
          }
        ],
        "orbital_data": {
          "orbit_id": "19",
          "orbit_determination_date": "2017-04-06 08:35:58",
          "orbit_uncertainty": "2",
          "minimum_orbit_intersection": ".101498",
          "jupiter_tisserand_invariant": "6.202",
          "epoch_osculation": "2458000.5",
          "eccentricity": ".386169991861794",
          "semi_major_axis": ".9610334760452351",
          "inclination": "6.742002683065411",
          "ascending_node_longitude": "347.7302611771173",
          "orbital_period": "344.1170575289283",
          "perihelion_distance": ".5899111864219351",
          "perihelion_argument": "358.644424536355",
          "aphelion_distance": "1.332155765668535",
          "perihelion_time": "2457989.179027477218",
          "mean_anomaly": "11.84349923676467",
          "mean_motion": "1.046155638389813",
          "equinox": "J2000"
        }
      }
    ]
  }
